[
  {
    "OBJECT_NAME": "STARLINK-1154",
    "OBJECT_ID": "20012W",
    "EPOCH": "2025-11-11T02:16:54.729696",
    "MEAN_MOTION": 15.06478944,
    "ECCENTRICITY": 2.51e-05,
    "INCLINATION": 53.0524,
    "RA_OF_ASC_NODE": 199.0106,
    "ARG_OF_PERICENTER": 122.8981,
    "MEAN_ANOMALY": 237.2032,
    "EPHEMERIS_TYPE": 0,
    "CLASSIFICATION_TYPE": "U",
    "NORAD_CAT_ID": 45198,
    "ELEMENT_SET_NO": 999,
    "REV_AT_EPOCH": 31718,
    "BSTAR": 0.0014247,
    "MEAN_MOTION_DOT": 0.00021048,
    "MEAN_MOTION_DDOT": 0.0,
    "TLE_LINE1": "1 45198U 20012W   25315.09507789  .00021048  00000+0  14247-2 0  9997",
    "TLE_LINE2": "2 45198  53.0524 199.0106 0000251 122.8981 237.2032 15.06478944317180",
    "COMMENT": "Grouped by shell and plane from TLE"
  },
  {
    "OBJECT_NAME": "STARLINK-1199",
    "OBJECT_ID": "20012Z",
    "EPOCH": "2025-11-10T23:21:48.073248",
    "MEAN_MOTION": 15.06425871,
    "ECCENTRICITY": 0.000173,
    "INCLINATION": 53.0537,
    "RA_OF_ASC_NODE": 199.5585,
    "ARG_OF_PERICENTER": 80.4501,
    "MEAN_ANOMALY": 279.6683,
    "EPHEMERIS_TYPE": 0,
    "CLASSIFICATION_TYPE": "U",
    "NORAD_CAT_ID": 45201,
    "ELEMENT_SET_NO": 999,
    "REV_AT_EPOCH": 31722,
    "BSTAR": 0.00073899,
    "MEAN_MOTION_DOT": 0.0001075,
    "MEAN_MOTION_DDOT": 0.0,
    "TLE_LINE1": "1 45201U 20012Z   25314.97347307  .00010750  00000+0  73899-3 0  9993",
    "TLE_LINE2": "2 45201  53.0537 199.5585 0001730  80.4501 279.6683 15.06425871317223",
    "COMMENT": "Grouped by shell and plane from TLE"
  },
  {
    "OBJECT_NAME": "STARLINK-1231",
    "OBJECT_ID": "20012AL",
    "EPOCH": "2025-11-11T01:52:03.407808",
    "MEAN_MOTION": 15.13014399,
    "ECCENTRICITY": 0.000744,
    "INCLINATION": 53.0498,
    "RA_OF_ASC_NODE": 196.9627,
    "ARG_OF_PERICENTER": 81.0372,
    "MEAN_ANOMALY": 279.1462,
    "EPHEMERIS_TYPE": 0,
    "CLASSIFICATION_TYPE": "U",
    "NORAD_CAT_ID": 45212,
    "ELEMENT_SET_NO": 999,
    "REV_AT_EPOCH": 31722,
    "BSTAR": 0.0024183,
    "MEAN_MOTION_DOT": 0.00043191,
    "MEAN_MOTION_DDOT": 0.0,
    "TLE_LINE1": "1 45212U 20012AL  25315.07781722  .00043191  00000+0  24183-2 0  9996",
    "TLE_LINE2": "2 45212  53.0498 196.9627 0007440  81.0372 279.1462 15.13014399317223",
    "COMMENT": "Grouped by shell and plane from TLE"
  },
  {
    "OBJECT_NAME": "STARLINK-1271",
    "OBJECT_ID": "20012AR",
    "EPOCH": "2025-11-11T02:11:40.517088",
    "MEAN_MOTION": 15.06412019,
    "ECCENTRICITY": 0.0002063,
    "INCLINATION": 53.0522,
    "RA_OF_ASC_NODE": 199.0308,
    "ARG_OF_PERICENTER": 69.2474,
    "MEAN_ANOMALY": 290.8736,
    "EPHEMERIS_TYPE": 0,
    "CLASSIFICATION_TYPE": "U",
    "NORAD_CAT_ID": 45217,
    "ELEMENT_SET_NO": 999,
    "REV_AT_EPOCH": 31724,
    "BSTAR": 0.0005819600000000001,
    "MEAN_MOTION_DOT": 8.4e-05,
    "MEAN_MOTION_DDOT": 0.0,
    "TLE_LINE1": "1 45217U 20012AR  25315.09144117  .00008400  00000+0  58196-3 0  9990",
    "TLE_LINE2": "2 45217  53.0522 199.0308 0002063  69.2474 290.8736 15.06412019317242",
    "COMMENT": "Grouped by shell and plane from TLE"
  },
  {
    "OBJECT_NAME": "STARLINK-1656",
    "OBJECT_ID": "20062AE",
    "EPOCH": "2025-11-10T09:13:54.910848",
    "MEAN_MOTION": 15.0639764,
    "ECCENTRICITY": 0.0001609,
    "INCLINATION": 53.0519,
    "RA_OF_ASC_NODE": 192.2009,
    "ARG_OF_PERICENTER": 87.116,
    "MEAN_ANOMALY": 273.0013,
    "EPHEMERIS_TYPE": 0,
    "CLASSIFICATION_TYPE": "U",
    "NORAD_CAT_ID": 46353,
    "ELEMENT_SET_NO": 999,
    "REV_AT_EPOCH": 28632,
    "BSTAR": 0.00081026,
    "MEAN_MOTION_DOT": 0.00011807,
    "MEAN_MOTION_DDOT": 0.0,
    "TLE_LINE1": "1 46353U 20062AE  25314.38466332  .00011807  00000+0  81026-3 0  9997",
    "TLE_LINE2": "2 46353  53.0519 192.2009 0001609  87.1160 273.0013 15.06397640286326",
    "COMMENT": "Grouped by shell and plane from TLE"
  },
  {
    "OBJECT_NAME": "STARLINK-2017",
    "OBJECT_ID": "21005C",
    "EPOCH": "2025-11-11T02:02:59.088768",
    "MEAN_MOTION": 15.06450288,
    "ECCENTRICITY": 0.0001242,
    "INCLINATION": 53.0508,
    "RA_OF_ASC_NODE": 194.0438,
    "ARG_OF_PERICENTER": 138.1256,
    "MEAN_ANOMALY": 221.9828,
    "EPHEMERIS_TYPE": 0,
    "CLASSIFICATION_TYPE": "U",
    "NORAD_CAT_ID": 47351,
    "ELEMENT_SET_NO": 999,
    "REV_AT_EPOCH": 26572,
    "BSTAR": 0.0019951,
    "MEAN_MOTION_DOT": 0.00029601,
    "MEAN_MOTION_DDOT": 0.0,
    "TLE_LINE1": "1 47351U 21005C   25315.08540612  .00029601  00000+0  19951-2 0  9994",
    "TLE_LINE2": "2 47351  53.0508 194.0438 0001242 138.1256 221.9828 15.06450288265720",
    "COMMENT": "Grouped by shell and plane from TLE"
  },
  {
    "OBJECT_NAME": "STARLINK-2046",
    "OBJECT_ID": "21005F",
    "EPOCH": "2025-11-11T02:59:31.837920",
    "MEAN_MOTION": 15.06393711,
    "ECCENTRICITY": 0.0001517,
    "INCLINATION": 53.054,
    "RA_OF_ASC_NODE": 199.4221,
    "ARG_OF_PERICENTER": 92.1618,
    "MEAN_ANOMALY": 267.9545,
    "EPHEMERIS_TYPE": 0,
    "CLASSIFICATION_TYPE": "U",
    "NORAD_CAT_ID": 47354,
    "ELEMENT_SET_NO": 999,
    "REV_AT_EPOCH": 26565,
    "BSTAR": 3.6697000000000005e-05,
    "MEAN_MOTION_DOT": 2.65e-06,
    "MEAN_MOTION_DDOT": 0.0,
    "TLE_LINE1": "1 47354U 21005F   25315.12467405  .00000265  00000+0  36697-4 0  9993",
    "TLE_LINE2": "2 47354  53.0540 199.4221 0001517  92.1618 267.9545 15.06393711265659",
    "COMMENT": "Grouped by shell and plane from TLE"
  },
  {
    "OBJECT_NAME": "STARLINK-2098",
    "OBJECT_ID": "21005AF",
    "EPOCH": "2025-11-11T01:43:07.977504",
    "MEAN_MOTION": 15.06388471,
    "ECCENTRICITY": 0.0001846,
    "INCLINATION": 53.0536,
    "RA_OF_ASC_NODE": 194.1172,
    "ARG_OF_PERICENTER": 83.5534,
    "MEAN_ANOMALY": 276.5665,
    "EPHEMERIS_TYPE": 0,
    "CLASSIFICATION_TYPE": "U",
    "NORAD_CAT_ID": 47378,
    "ELEMENT_SET_NO": 999,
    "REV_AT_EPOCH": 26572,
    "BSTAR": 4.6108e-05,
    "MEAN_MOTION_DOT": 4.05e-06,
    "MEAN_MOTION_DDOT": 0.0,
    "TLE_LINE1": "1 47378U 21005AF  25315.07162011  .00000405  00000+0  46108-4 0  9992",
    "TLE_LINE2": "2 47378  53.0536 194.1172 0001846  83.5534 276.5665 15.06388471265727",
    "COMMENT": "Grouped by shell and plane from TLE"
  },
  {
    "OBJECT_NAME": "STARLINK-2099",
    "OBJECT_ID": "21005AG",
    "EPOCH": "2025-11-11T01:52:24.379680",
    "MEAN_MOTION": 15.06383043,
    "ECCENTRICITY": 0.000169,
    "INCLINATION": 53.054,
    "RA_OF_ASC_NODE": 194.0808,
    "ARG_OF_PERICENTER": 69.7645,
    "MEAN_ANOMALY": 290.3526,
    "EPHEMERIS_TYPE": 0,
    "CLASSIFICATION_TYPE": "U",
    "NORAD_CAT_ID": 47379,
    "ELEMENT_SET_NO": 999,
    "REV_AT_EPOCH": 26572,
    "BSTAR": 0.00041419,
    "MEAN_MOTION_DOT": 5.89e-05,
    "MEAN_MOTION_DDOT": 0.0,
    "TLE_LINE1": "1 47379U 21005AG  25315.07805995  .00005890  00000+0  41419-3 0  9990",
    "TLE_LINE2": "2 47379  53.0540 194.0808 0001690  69.7645 290.3526 15.06383043265724",
    "COMMENT": "Grouped by shell and plane from TLE"
  },
  {
    "OBJECT_NAME": "STARLINK-2103",
    "OBJECT_ID": "21005AL",
    "EPOCH": "2025-11-11T01:53:47.747904",
    "MEAN_MOTION": 15.06392946,
    "ECCENTRICITY": 0.0001468,
    "INCLINATION": 53.0508,
    "RA_OF_ASC_NODE": 194.3642,
    "ARG_OF_PERICENTER": 88.7179,
    "MEAN_ANOMALY": 271.3978,
    "EPHEMERIS_TYPE": 0,
    "CLASSIFICATION_TYPE": "U",
    "NORAD_CAT_ID": 47383,
    "ELEMENT_SET_NO": 999,
    "REV_AT_EPOCH": 26572,
    "BSTAR": 7.2867e-05,
    "MEAN_MOTION_DOT": 8.04e-06,
    "MEAN_MOTION_DDOT": 0.0,
    "TLE_LINE1": "1 47383U 21005AL  25315.07902486  .00000804  00000+0  72867-4 0  9990",
    "TLE_LINE2": "2 47383  53.0508 194.3642 0001468  88.7179 271.3978 15.06392946265720",
    "COMMENT": "Grouped by shell and plane from TLE"
  },
  {
    "OBJECT_NAME": "STARLINK-2122",
    "OBJECT_ID": "21005BD",
    "EPOCH": "2025-11-11T02:04:20.584704",
    "MEAN_MOTION": 15.06401301,
    "ECCENTRICITY": 9.46e-05,
    "INCLINATION": 53.0552,
    "RA_OF_ASC_NODE": 194.06,
    "ARG_OF_PERICENTER": 89.7505,
    "MEAN_ANOMALY": 270.3593,
    "EPHEMERIS_TYPE": 0,
    "CLASSIFICATION_TYPE": "U",
    "NORAD_CAT_ID": 47400,
    "ELEMENT_SET_NO": 999,
    "REV_AT_EPOCH": 26572,
    "BSTAR": 0.00038264,
    "MEAN_MOTION_DOT": 5.423e-05,
    "MEAN_MOTION_DDOT": 0.0,
    "TLE_LINE1": "1 47400U 21005BD  25315.08634936  .00005423  00000+0  38264-3 0  9997",
    "TLE_LINE2": "2 47400  53.0552 194.0600 0000946  89.7505 270.3593 15.06401301265722",
    "COMMENT": "Grouped by shell and plane from TLE"
  },
  {
    "OBJECT_NAME": "STARLINK-1954",
    "OBJECT_ID": "21009H",
    "EPOCH": "2025-11-11T01:00:40.668768",
    "MEAN_MOTION": 15.06402977,
    "ECCENTRICITY": 0.0001569,
    "INCLINATION": 53.0534,
    "RA_OF_ASC_NODE": 194.2497,
    "ARG_OF_PERICENTER": 80.1897,
    "MEAN_ANOMALY": 279.9269,
    "EPHEMERIS_TYPE": 0,
    "CLASSIFICATION_TYPE": "U",
    "NORAD_CAT_ID": 47555,
    "ELEMENT_SET_NO": 999,
    "REV_AT_EPOCH": 26291,
    "BSTAR": 0.00035962,
    "MEAN_MOTION_DOT": 5.079e-05,
    "MEAN_MOTION_DDOT": 0.0,
    "TLE_LINE1": "1 47555U 21009H   25315.04213737  .00005079  00000+0  35962-3 0  9999",
    "TLE_LINE2": "2 47555  53.0534 194.2497 0001569  80.1897 279.9269 15.06402977262913",
    "COMMENT": "Grouped by shell and plane from TLE"
  },
  {
    "OBJECT_NAME": "STARLINK-1962",
    "OBJECT_ID": "21009R",
    "EPOCH": "2025-11-11T06:24:26.474976",
    "MEAN_MOTION": 15.06376298,
    "ECCENTRICITY": 0.00013,
    "INCLINATION": 53.0548,
    "RA_OF_ASC_NODE": 193.2391,
    "ARG_OF_PERICENTER": 112.0901,
    "MEAN_ANOMALY": 248.0226,
    "EPHEMERIS_TYPE": 0,
    "CLASSIFICATION_TYPE": "U",
    "NORAD_CAT_ID": 47563,
    "ELEMENT_SET_NO": 999,
    "REV_AT_EPOCH": 26294,
    "BSTAR": 0.0002339,
    "MEAN_MOTION_DOT": 3.202e-05,
    "MEAN_MOTION_DDOT": 0.0,
    "TLE_LINE1": "1 47563U 21009R   25315.26697309  .00003202  00000+0  23390-3 0  9991",
    "TLE_LINE2": "2 47563  53.0548 193.2391 0001300 112.0901 248.0226 15.06376298262942",
    "COMMENT": "Grouped by shell and plane from TLE"
  }
]